[{"OBJECT_NAME":"STARLINK-3639","OBJECT_ID":"2022-017X","EPOCH":"2026-03-09T22:12:30.855168","MEAN_MOTION":15.0884289,"ECCENTRICITY":0.00013497,"INCLINATION":53.219,"RA_OF_ASC_NODE":348.0566,"ARG_OF_PERICENTER":115.454,"MEAN_ANOMALY":244.6592,"EPHEMERIS_TYPE":0,"CLASSIFICATION_TYPE":"U","NORAD_CAT_ID":51789,"ELEMENT_SET_NO":999,"REV_AT_EPOCH":22231,"BSTAR":5.9659178e-5,"MEAN_MOTION_DOT":6.62e-6,"MEAN_MOTION_DDOT":0},{"OBJECT_NAME":"CZ-6A R\/B","OBJECT_ID":"2026-006B","EPOCH":"2026-03-09T16:33:28.241280","MEAN_MOTION":14.62408141,"ECCENTRICITY":0.02011935,"INCLINATION":142.0446,"RA_OF_ASC_NODE":130.9033,"ARG_OF_PERICENTER":126.5877,"MEAN_ANOMALY":235.3545,"EPHEMERIS_TYPE":0,"CLASSIFICATION_TYPE":"U","NORAD_CAT_ID":67434,"ELEMENT_SET_NO":999,"REV_AT_EPOCH":807,"BSTAR":0.00025316121,"MEAN_MOTION_DOT":2.077e-5,"MEAN_MOTION_DDOT":0}]
